CCSDS_OMM_VERS = 2.0
CREATION_DATE  = 
ORIGINATOR     = 

OBJECT_NAME    = XRISM
OBJECT_ID      = 2023-137A
CENTER_NAME    = EARTH
REF_FRAME      = TEME
TIME_SYSTEM    = UTC
MEAN_ELEMENT_THEORY = SGP/SGP4

EPOCH          = 2026-03-07T01:33:48.248064
MEAN_MOTION    = 15.11463036
ECCENTRICITY   = .00080351
INCLINATION    = 31.0025
RA_OF_ASC_NODE = 300.6391
ARG_OF_PERICENTER = 11.7936
MEAN_ANOMALY   = 348.2890

EPHEMERIS_TYPE = 0
CLASSIFICATION_TYPE = U
NORAD_CAT_ID   = 57800
ELEMENT_SET_NO = 999
REV_AT_EPOCH   = 13739
BSTAR          = .36310493E-3
MEAN_MOTION_DOT = .6397E-4
MEAN_MOTION_DDOT = 0

CCSDS_OMM_VERS = 2.0
CREATION_DATE  = 
ORIGINATOR     = 

OBJECT_NAME    = ACS3
OBJECT_ID      = 2024-077B
CENTER_NAME    = EARTH
REF_FRAME      = TEME
TIME_SYSTEM    = UTC
MEAN_ELEMENT_THEORY = SGP/SGP4

EPOCH          = 2026-03-07T06:22:42.456288
MEAN_MOTION    = 13.89472654
ECCENTRICITY   = .00578649
INCLINATION    = 97.2093
RA_OF_ASC_NODE = 7.9227
ARG_OF_PERICENTER = 82.9629
MEAN_ANOMALY   = 277.8111

EPHEMERIS_TYPE = 0
CLASSIFICATION_TYPE = U
NORAD_CAT_ID   = 59588
ELEMENT_SET_NO = 999
REV_AT_EPOCH   = 9386
BSTAR          = .19133426E-1
MEAN_MOTION_DOT = .23728E-3
MEAN_MOTION_DDOT = 0

CCSDS_OMM_VERS = 2.0
CREATION_DATE  = 
ORIGINATOR     = 

OBJECT_NAME    = SZ-21 MODULE
OBJECT_ID      = 2025-246C
CENTER_NAME    = EARTH
REF_FRAME      = TEME
TIME_SYSTEM    = UTC
MEAN_ELEMENT_THEORY = SGP/SGP4

EPOCH          = 2026-03-06T12:11:03.500160
MEAN_MOTION    = 15.68252686
ECCENTRICITY   = .00014339
INCLINATION    = 41.4735
RA_OF_ASC_NODE = 222.9439
ARG_OF_PERICENTER = 292.6372
MEAN_ANOMALY   = 67.4317

EPHEMERIS_TYPE = 0
CLASSIFICATION_TYPE = U
NORAD_CAT_ID   = 66515
ELEMENT_SET_NO = 999
REV_AT_EPOCH   = 1757
BSTAR          = .36494457E-3
MEAN_MOTION_DOT = .4195E-3
MEAN_MOTION_DDOT = 0

